{
    "links": {
        "self": "http://www.neowsapp.com/rest/v1/neo/3798968?api_key=iIulBulltgU6a56xZRHN4H3l9WmuAYTsLGpBGhQ2"
    },
    "id": "3798968",
    "neo_reference_id": "3798968",
    "name": "(2018 BF6)",
    "designation": "2018 BF6",
    "nasa_jpl_url": "http://ssd.jpl.nasa.gov/sbdb.cgi?sstr=3798968",
    "absolute_magnitude_h": 25.6,
    "estimated_diameter": {
        "kilometers": {
            "estimated_diameter_min": 0.0201629919,
            "estimated_diameter_max": 0.0450858206
        },
        "meters": {
            "estimated_diameter_min": 20.1629919443,
            "estimated_diameter_max": 45.0858206172
        },
        "miles": {
            "estimated_diameter_min": 0.0125286985,
            "estimated_diameter_max": 0.0280150214
        },
        "feet": {
            "estimated_diameter_min": 66.1515504905,
            "estimated_diameter_max": 147.9193637137
        }
    },
    "is_potentially_hazardous_asteroid": false,
    "close_approach_data": [
        {
            "close_approach_date": "2018-01-21",
            "close_approach_date_full": "2018-Jan-21 22:09",
            "epoch_date_close_approach": 1516572540000,
            "relative_velocity": {
                "kilometers_per_second": "18.5077828632",
                "kilometers_per_hour": "66628.0183074905",
                "miles_per_hour": "41400.0594866737"
            },
            "miss_distance": {
                "astronomical": "0.017053839",
                "lunar": "6.633943371",
                "kilometers": "2551217.98972293",
                "miles": "1585253.349639234"
            },
            "orbiting_body": "Earth"
        },
        {
            "close_approach_date": "2133-09-05",
            "close_approach_date_full": "2133-Sep-05 01:34",
            "epoch_date_close_approach": 5165170440000,
            "relative_velocity": {
                "kilometers_per_second": "17.4231133677",
                "kilometers_per_hour": "62723.2081235458",
                "miles_per_hour": "38973.7622920999"
            },
            "miss_distance": {
                "astronomical": "0.0412265105",
                "lunar": "16.0371125845",
                "kilometers": "6167398.158332635",
                "miles": "3832243.512094963"
            },
            "orbiting_body": "Earth"
        }
    ],
    "orbital_data": {
        "orbit_id": "1",
        "orbit_determination_date": "2018-01-28 09:42:06",
        "first_observation_date": "2018-01-25",
        "last_observation_date": "2018-01-28",
        "data_arc_in_days": 3,
        "observations_used": 48,
        "orbit_uncertainty": "8",
        "minimum_orbit_intersection": ".0101214",
        "jupiter_tisserand_invariant": "3.046",
        "epoch_osculation": "2458144.5",
        "eccentricity": ".713222547143144",
        "semi_major_axis": "2.510508546429069",
        "inclination": "2.265014282156649",
        "ascending_node_longitude": "105.5413461501713",
        "orbital_period": "1452.917594876776",
        "perihelion_distance": ".7199572463202965",
        "perihelion_argument": "305.8925994165142",
        "aphelion_distance": "4.301059846537842",
        "perihelion_time": "2458099.279039478831",
        "mean_anomaly": "11.20472753928039",
        "mean_motion": ".2477773008389592",
        "equinox": "J2000",
        "orbit_class": {
            "orbit_class_type": "APO",
            "orbit_class_description": "Near-Earth asteroid orbits which cross the Earth’s orbit similar to that of 1862 Apollo",
            "orbit_class_range": "a (semi-major axis) > 1.0 AU; q (perihelion) < 1.017 AU"
        }
    },
    "is_sentry_object": false
}